QIANFAN-65              
1 62795U 25016L   25322.88184572  .00000097  00000+0  13135-3 0  9991
2 62795  88.9744 105.5244 0015116  56.9575 303.3025 13.50977429 44026
QIANFAN-66              
1 62796U 25016M   25322.91064400  .00000105  00000+0  14301-3 0  9999
2 62796  88.9763 105.4870 0016123  52.4477 307.8136 13.50981469 44079
QIANFAN-67              
1 62797U 25016N   25322.91482781  .00000103  00000+0  14092-3 0  9991
2 62797  88.9754 105.5144 0016241  58.8403 301.4338 13.50974358 44045
QIANFAN-68              
1 62798U 25016P   25322.90656432  .00000106  00000+0  14562-3 0  9992
2 62798  88.9757 105.5596 0016254  57.2160 303.0555 13.50976669 44021
QIANFAN-69              
1 62799U 25016Q   25322.92311162  .00000102  00000+0  13939-3 0  9996
2 62799  88.9736 105.4324 0017039  57.9594 302.3210 13.50979767 44063
QIANFAN-70              
1 62800U 25016R   25322.93937219  .00000093  00000+0  12583-3 0  9990
2 62800  88.9756 105.5641 0016454  49.1114 311.1460 13.50970428 44028
QIANFAN-71              
1 62801U 25016S   25322.93533735  .00000094  00000+0  12686-3 0  9991
2 62801  88.9750 105.5455 0017023  61.2269 299.0590 13.50977632 44027
QIANFAN-72              
1 62802U 25016T   25322.87774979  .00000104  00000+0  14215-3 0  9994
2 62802  88.9741 105.5672 0020397  67.5046 292.8262 13.50977505 44003
